[{"OBJECT_NAME":"SCS-01 B","OBJECT_ID":"2025-100B","EPOCH":"2026-03-09T21:49:11.508672","MEAN_MOTION":15.3317485,"ECCENTRICITY":0.00088698,"INCLINATION":97.3706,"RA_OF_ASC_NODE":145.9041,"ARG_OF_PERICENTER":288.6157,"MEAN_ANOMALY":71.4122,"EPHEMERIS_TYPE":0,"CLASSIFICATION_TYPE":"U","NORAD_CAT_ID":63983,"ELEMENT_SET_NO":999,"REV_AT_EPOCH":4567,"BSTAR":0.00098809397,"MEAN_MOTION_DOT":0.00031724,"MEAN_MOTION_DDOT":0},{"OBJECT_NAME":"STARLINK-35148","OBJECT_ID":"2025-221X","EPOCH":"2026-03-09T10:41:59.616960","MEAN_MOTION":15.30198042,"ECCENTRICITY":0.00013784,"INCLINATION":53.1599,"RA_OF_ASC_NODE":89.6461,"ARG_OF_PERICENTER":71.1227,"MEAN_ANOMALY":288.9923,"EPHEMERIS_TYPE":0,"CLASSIFICATION_TYPE":"U","NORAD_CAT_ID":65844,"ELEMENT_SET_NO":999,"REV_AT_EPOCH":2469,"BSTAR":0.0010496373,"MEAN_MOTION_DOT":0.00030855,"MEAN_MOTION_DDOT":0}]
